OBJECT_NAME,OBJECT_ID,EPOCH,MEAN_MOTION,ECCENTRICITY,INCLINATION,RA_OF_ASC_NODE,ARG_OF_PERICENTER,MEAN_ANOMALY,EPHEMERIS_TYPE,CLASSIFICATION_TYPE,NORAD_CAT_ID,ELEMENT_SET_NO,REV_AT_EPOCH,BSTAR,MEAN_MOTION_DOT,MEAN_MOTION_DDOT
COSMO-SKYMED 1,2007-023A,2026-06-15T12:44:30.901344,14.97092005,.000118,97.8839,358.3728,98.9996,261.1359,0,U,31598,999,2954,.19742E-3,.2217E-4,0
COSMOS 2428,2007-029A,2026-06-15T12:22:08.870016,14.12928417,.0007144,70.9370,357.9879,138.1128,222.0541,0,U,31792,999,97791,-.39931E-4,-.122E-5,0
SL-16 R/B,2007-029B,2026-06-15T13:18:14.766048,14.14854519,.0002291,70.9768,326.6607,261.5373,160.9713,0,U,31793,999,97921,.11096E-3,.166E-5,0
KORONAS-FOTON,2009-003A,2026-06-15T11:02:28.635360,15.45692606,.0011518,82.4280,174.0610,153.1010,207.0838,0,U,33504,999,96083,.16431E-3,.7987E-4,0
CZ-2C R/B,2011-030B,2026-06-15T11:57:22.701888,14.81467712,.0053185,97.8655,121.9147,33.3770,84.6734,0,U,37731,999,80457,.14593E-3,.1116E-4,0
H-2A R/B,2012-025E,2026-06-15T11:37:38.746272,14.95711895,.0043746,98.4828,141.4898,354.9647,5.1126,0,U,38341,999,76283,.27736E-3,.3077E-4,0
SHIJIAN-16 (SJ-16),2013-057A,2026-06-15T13:31:44.863680,14.92604417,.0016841,74.9728,359.7587,234.6214,125.3401,0,U,39358,999,68610,.1091E-3,.1096E-4,0
SL-4 R/B,2014-021B,2026-06-15T10:38:45.763008,15.41923142,.0091322,51.6040,219.3137,99.6366,261.4950,0,U,39679,999,67134,.16715E-3,.7928E-4,0
ALOS-2,2014-029A,2026-06-15T12:23:00.483648,14.79469209,.0001661,97.9223,263.7032,92.7584,267.3818,0,U,39766,999,65133,.29775E-3,.2173E-4,0
YAOGAN-29,2015-069A,2026-06-15T13:24:21.140064,14.83083715,.0002672,98.0026,195.1887,56.9530,303.1940,0,U,41038,999,57038,.57168E-4,.411E-5,0
ASTRO-H (HITOMI),2016-012A,2026-06-14T23:39:29.445408,15.10502589,.00097644,30.9993,88.4041,231.8970,128.0788,0,U,41337,999,56695,.13127652E-3,.2314E-4,0
HXMT (HUIYAN),2017-034A,2026-06-15T11:45:26.013024,15.18468972,.0030425,43.0126,192.4924,136.0448,224.2827,0,U,42758,999,49740,.13257E-3,.2568E-4,0
SAOCOM 1A,2018-076A,2026-06-15T12:22:43.048128,14.82146434,.0001572,97.8876,353.2886,78.3653,281.7737,0,U,43641,999,41585,.10657E-5,-.44E-6,0
H-2A R/B,2018-084L,2026-06-15T12:13:18.393888,15.45099737,.0023682,98.8581,45.0329,46.2743,314.0457,0,U,43682,999,42086,.3594E-3,.17079E-3,0
SAOCOM 1B,2020-059A,2026-06-15T11:30:23.234976,14.82209781,.0001302,97.8880,352.3477,84.2147,275.9214,0,U,46265,999,31323,.9789E-4,.728E-5,0
CSS (TIANHE),2021-035A,2026-06-15T12:07:40.302048,15.60745824,.0007551,41.4694,332.2368,63.8756,296.2859,0,U,48274,999,29290,.24515E-3,.2072E-3,0
COSMOS 2550,2021-056A,2026-06-15T07:53:18.270816,15.33835650,.0008409,67.1431,105.5275,268.0882,91.9310,0,U,48865,999,27843,.13766E-3,.4341E-4,0
CZ-2C R/B,2022-058K,2026-06-14T17:55:29.611200,15.61696583,.00325778,50.1832,176.2150,257.8533,101.8791,0,U,52794,999,22526,.37204522E-3,.33243E-3,0
CZ-2C R/B,2022-132E,2026-06-15T11:55:21.522432,15.71331946,.0016239,97.2895,173.4459,89.3053,271.0071,0,U,54039,999,20568,.43181E-3,.55315E-3,0
GSLV R/B,2022-138AN,2026-06-15T10:43:33.315168,14.97249250,.0022636,87.3801,133.5684,149.4516,210.8039,0,U,54149,999,19855,.21959E-3,.2583E-4,0
XRISM,2023-137A,2026-06-14T22:43:24.893760,15.12448733,.00079677,31.0032,14.1135,301.5988,58.3873,0,U,57800,999,15252,.25816333E-3,.4701E-4,0
ACS3,2024-077B,2026-06-14T14:54:47.943072,13.93844822,.00689894,97.1678,84.9820,65.3065,295.5264,0,U,59588,999,10768,.58459193E-2,.784E-4,0
CZ-8A R/B,2025-231K,2026-06-15T09:00:05.344704,14.30154450,.0116475,50.0057,47.0258,217.6248,141.6477,0,U,66004,999,3468,.35091E-4,-.65E-6,0
SZ-21 MODULE,2025-246C,2026-06-13T17:32:52.137600,15.76117488,.00067511,41.4731,328.8460,328.3391,31.7047,0,U,66515,999,3319,.28446481E-3,.45764E-3,0
